ONEWEB-0299             
1 49088U 21075P   22191.34127886  .00000039  00000+0  68086-4 0  9991
2 49088  87.9086 291.5696 0001957  92.3356 267.7999 13.17650196 44250
ONEWEB-0300             
1 49089U 21075Q   22191.27072657 -.00000740  00000+0 -20935-2 0  9999
2 49089  87.8886 276.3930 0001693  97.6485 262.4835 13.12445069 46594
ONEWEB-0301             
1 49090U 21075R   22191.25590130 -.00000145  00000+0 -43858-3 0  9999
2 49090  87.8895 276.4034 0001789 107.0486 253.0838 13.12438333 45959
ONEWEB-0302             
1 49091U 21075S   22191.24427426  .00000186  00000+0  48107-3 0  9991
2 49091  87.8899 276.4041 0002130  94.3431 265.7941 13.12437569 45934
ONEWEB-0304             
1 49092U 21075T   22191.32579230  .00000064  00000+0  13041-3 0  9996
2 49092  87.9081 291.6378 0001983  98.8239 261.3117 13.17648269 44225
ONEWEB-0305             
1 49093U 21075U   22191.31804641  .00000010  00000+0 -76636-5 0  9996
2 49093  87.9085 291.6828 0002093  85.9744 274.1627 13.17649786 44257
ONEWEB-0308             
1 49094U 21075V   22191.31519246  .00000421  00000+0  11338-2 0  9991
2 49094  87.8889 276.3883 0001888 102.1808 257.9532 13.12444627 45958
ONEWEB-0309             
1 49095U 21075W   22191.32269785  .00000050  00000+0  95961-4 0  9997
2 49095  87.9091 291.6829 0002613 105.4239 254.7181 13.17647888 44229
ONEWEB-0310             
1 49096U 21075X   22191.25168459  .00000015  00000+0  49256-5 0  9994
2 49096  87.8858 276.4716 0002359  99.6997 260.4398 13.12437308 46571
ONEWEB-0311             
1 49097U 21075Y   22191.32735404  .00000077  00000+0  16410-3 0  9995
2 49097  87.9090 291.6844 0001909  86.2222 273.9127 13.17646682 44271
ONEWEB-0312             
1 49098U 21075Z   22191.33510012  .00000034  00000+0  54783-4 0  9992
2 49098  87.9102 291.6370 0002379  93.3477 266.7927 13.17650450 44257
ONEWEB-0313             
1 49099U 21075AA  22191.32115962  .00000375  00000+0  93304-3 0  9996
2 49099  87.9086 291.6853 0002502  91.5243 268.6176 13.17648416 44249
ONEWEB-0314             
1 49100U 21075AB  22191.31648516  .00000030  00000+0  45233-4 0  9991
2 49100  87.9092 291.6823 0002400  92.6426 267.4980 13.17650743 44211
ONEWEB-0315             
1 49101U 21075AC  22191.29826685  .00000503  00000+0  13631-2 0  9994
2 49101  87.8760 276.4100 0001920  89.2600 270.8748 13.12444969 46560
ONEWEB-0316             
1 49102U 21075AD  22191.58334491  .00046451  00000+0  96135-1 0  9997
2 49102  87.9651 261.0950 0001469 163.1905 228.0087 13.31920483  1307
ONEWEB-0317             
1 49103U 21075AE  22191.29402823  .00000322  00000+0  85959-3 0  9992
2 49103  87.8855 276.4252 0002347 101.2081 258.9311 13.12446278 46587
ONEWEB-0318             
1 49104U 21075AF  22191.58334491  .00045102  00000+0  92651-1 0  9990
2 49104  87.9642 261.0779 0002510 101.8050 122.5158 13.32419610  1309
ONEWEB-0319             
1 49105U 21075AG  22191.32890368  .00000039  00000+0  67508-4 0  9999
2 49105  87.9090 291.6445 0001790  73.4496 286.6832 13.17648959 44258
ONEWEB-0323             
1 49106U 21075AH  22191.28451327  .00000050  00000+0  10296-3 0  9997
2 49106  87.8905 276.3892 0001947  92.1554 267.9797 13.12444584 45948
ONEWEB-0329             
1 49107U 21075AJ  22191.33200726  .00000026  00000+0  32853-4 0  9996
2 49107  87.9087 291.6434 0002189  92.3476 267.7906 13.17650032 44230
ONEWEB-0330             
1 49108U 21075AK  22191.33354600  .00000051  00000+0  99234-4 0  9992
2 49108  87.9088 291.6605 0002188  95.7594 264.3787 13.17649143 44274
RSW-01                  
1 49112U 21076A   22191.49654617  .00000023  00000+0  12513-4 0  9990
2 49112  86.4083 311.5602 0017296 125.2881 234.9884 13.42714923 42941
PAYLOAD B               
1 49113U 21076B   22191.53349366  .00000108  00000+0  52238-4 0  9990
2 49113  86.4042 298.3585 0020888  33.3922 326.8572 14.08637956 44989
RSW-02                  
1 49114U 21076C   22191.50291854  .00000034  00000+0  31598-4 0  9990
2 49114  86.4082 311.5610 0020847 122.5255 237.7907 13.42715050 42941
TJS-7                   
1 49115U 21077A   22191.56682814 -.00000220  00000+0  00000+0 0  9995
2 49115   0.2507 264.6905 0000952 109.9521 264.4615  1.00271499  3397
GAOFEN 5-02             
1 49122U 21079A   22191.58577892  .00000102  00000+0  32367-4 0  9990
2 49122  98.2506 265.8323 0002992  71.8305 288.3230 14.57728728 44640
CHINASAT 9B             
1 49125U 21080A   22191.48608029 -.00000304  00000+0  00000+0 0  9990
2 49125   0.0413 108.8370 0003297  13.7908  82.1579  1.00272860  3222
STARLINK-3096           
1 49131U 21082B   22191.55686637 -.00002596  00000+0 -20988-3 0  9995
2 49131  69.9969  28.3596 0003243 257.7025 102.3771 14.98319575 46521
STARLINK-3090           
1 49132U 21082C   22191.05554032 -.00000604  00000+0 -42783-4 0  9990
2 49132  69.9984  69.6139 0003001 264.0705  96.0112 14.98337012 45464
STARLINK-3077           
1 49133U 21082D   22191.05079283 -.00002532  00000+0 -20459-3 0  9998
2 49133  69.9994  69.6377 0003042 255.8301 104.2520 14.98309317 45467
STARLINK-3078           
1 49134U 21082E   22191.04602130 -.00002474  00000+0 -19971-3 0  9993
2 49134  70.0001  69.6471 0002984 259.9445 100.1377 14.98312420 46660
STARLINK-3073           
1 49135U 21082F   22191.52577555 -.00002804  00000+0 -23709-3 0  9990
2 49135  69.9976  27.8678 0003230 266.1721  93.9068 14.96707048 46541
STARLINK-3084           
1 49136U 21082G   22191.56241150 -.00001411  00000+0 -11530-3 0  9996
2 49136  69.9995  48.0296 0003012 254.0018 106.0809 14.96706814 46052
STARLINK-3055           
1 49137U 21082H   22191.02437896  .00002187  00000+0  19899-3 0  9997
2 49137  70.0018  49.3991 0002975 261.7453  98.3368 14.96723260 45969
STARLINK-3058           
1 49138U 21082J   22191.10799366 -.00000625  00000+0 -44593-4 0  9997
2 49138  70.0005  69.4888 0003132 254.6121 105.4692 14.98337586 45473
STARLINK-3057           
1 49139U 21082K   22191.24866585 -.00000575  00000+0 -42234-4 0  9995
2 49139  69.9982  28.5655 0002994 269.8226  90.2589 14.96708139 46495
STARLINK-3118           
1 49140U 21082L   22190.97159891 -.00001367  00000+0 -11143-3 0  9995
2 49140  69.9988  29.2615 0002923 266.2095  93.8729 14.96712270 46456
STARLINK-3093           
1 49141U 21082M   22191.10323761 -.00002502  00000+0 -20199-3 0  9994
2 49141  69.9988  69.4936 0002867 253.8211 106.2633 14.98323846 46674
STARLINK-3042           
1 49142U 21082N   22191.03355486 -.00001371  00000+0 -11181-3 0  9990
2 49142  69.9996  29.1170 0003105 263.8124  96.2681 14.96708252 46461
STARLINK-3109           
1 49143U 21082P   22191.35374490 -.00003931  00000+0 -33564-3 0  9995
2 49143  69.9992  48.5688 0002928 262.3717  97.7109 14.96714118 47124
STARLINK-3100           
1 49144U 21082Q   22191.09847458 -.00003459  00000+0 -28234-3 0  9999
2 49144  69.9994  69.5227 0002818 262.8215  97.2623 14.98317298 45477
STARLINK-3119           
1 49145U 21082R   22191.55557173 -.00002777  00000+0 -23475-3 0  9997
2 49145  69.9969  27.8149 0003123 259.9211 100.1595 14.96710576 46537
STARLINK-3116           
1 49146U 21082S   22191.34888515 -.00001451  00000+0 -11884-3 0  9991
2 49146  70.0001  48.5813 0003003 263.0363  97.0454 14.96706351 47161
STARLINK-3071           
1 49147U 21082T   22191.29601704 -.00002151  00000+0 -18003-3 0  9997
2 49147  70.0007  28.4509 0003124 264.4411  95.6391 14.96710932 46501
STARLINK-3048           
1 49148U 21082U   22191.34402935 -.00002281  00000+0 -19142-3 0  9998
2 49148  69.9993  48.5894 0002713 259.0872 100.9981 14.96703632 46006
STARLINK-3053           
1 49149U 21082V   22191.09368964 -.00001002  00000+0 -76148-4 0  9994
2 49149  70.0004  69.5214 0002915 265.7437  94.3389 14.98336293 46664
STARLINK-3104           
1 49150U 21082W   22191.08892405 -.00000332  00000+0 -20023-4 0  9993
2 49150  69.9993  69.5365 0003059 264.1949  95.8862 14.98329474 46663
STARLINK-3102           
1 49151U 21082X   22191.54580743 -.00000609  00000+0 -45241-4 0  9990
2 49151  69.9976  27.8402 0002926 263.8229  96.2596 14.96712630 47739
STARLINK-3081           
1 49152U 21082Y   22191.52077668 -.00000718  00000+0 -54735-4 0  9995
2 49152  69.9989  27.8838 0002971 258.2276 101.8549 14.96712495 47669
STARLINK-3072           
1 49153U 21082Z   22191.00137470 -.00001453  00000+0 -11896-3 0  9994
2 49153  69.9990  29.2145 0003144 269.0468  91.0330 14.96711391 47667
STARLINK-3068           
1 49154U 21082AA  22191.33919640 -.00000146  00000+0 -47360-5 0  9993
2 49154  69.9979  48.5965 0003151 259.3665 100.7138 14.96709943 47088
STARLINK-3060           
1 49155U 21082AB  22191.53019405  .00004337  00000+0  38574-3 0  9995
2 49155  69.9988  27.8511 0002710 261.5295  98.5556 14.96809596 47612
STARLINK-3085           
1 49156U 21082AC  22190.97640369 -.00000522  00000+0 -37616-4 0  9993
2 49156  69.9996  29.2542 0002843 269.8937  90.1895 14.96704835 47538
STARLINK-3051           
1 49157U 21082AD  22191.33433004 -.00001390  00000+0 -11346-3 0  9996
2 49157  69.9976  48.6091 0003217 250.6723 109.4088 14.96721743 47106
STARLINK-3083           
1 49158U 21082AE  22191.32919122  .00004382  00000+0  38962-3 0  9991
2 49158  70.0025  48.6237 0002648 262.3164  97.7694 14.96811866 47101
STARLINK-3056           
1 49159U 21082AF  22191.08415002  .00000601  00000+0  58185-4 0  9993
2 49159  70.0009  69.5469 0003430 260.7590  99.3181 14.98340287 46562
STARLINK-3095           
1 49160U 21082AG  22191.07463581 -.00003142  00000+0 -25580-3 0  9996
2 49160  69.9997  69.5744 0002939 269.4491  90.6331 14.98303886 46534
STARLINK-3080           
1 49161U 21082AH  22191.14616133 -.00000638  00000+0 -45661-4 0  9998
2 49161  69.9994  69.3894 0002920 257.9139 102.1693 14.98337244 46554
STARLINK-3082           
1 49162U 21082AJ  22191.06986594 -.00001477  00000+0 -11605-3 0  9993
2 49162  70.0001  69.5813 0002769 262.0818  98.0026 14.98310513 46623
